{
  "type": "FeatureCollection",
  "features": [
    {
      "type": "Feature",
      "properties": {
        "norad_id": 34088,
        "name": "IRIDIUM 33 DEB",
        "group": "iridium-33-debris",
        "lat": 30.986013025133442,
        "lon": 26.54174280783573,
        "alt_km": 591.2274251900417,
        "timestamp": "2025-12-26T13:39:19.364156+00:00",
        "meta_object_name": "IRIDIUM 33 DEB",
        "meta_object_id": "1997-051CX",
        "meta_epoch": "2025-12-26T02:30:32.480640",
        "meta_mean_motion": 14.91984405,
        "meta_eccentricity": 0.00071563,
        "meta_inclination": 86.3845,
        "meta_ra_of_asc_node": 24.5792,
        "meta_arg_of_pericenter": 135.5751,
        "meta_mean_anomaly": 282.7745,
        "meta_ephemeris_type": 0,
        "meta_classification_type": "U",
        "meta_norad_cat_id": 34088,
        "meta_element_set_no": 999,
        "meta_rev_at_epoch": 88941,
        "meta_bstar": 0.0022346157,
        "meta_mean_motion_dot": 0.00022718,
        "meta_mean_motion_ddot": 0,
        "tle_line1": "1 34088U 97051CX  25360.10454260  .00022718  00000+0  22346-2 0  9991",
        "tle_line2": "2 34088  86.3845  24.5792 0007156 135.5751 282.7745 14.91984405889414"
      },
      "geometry": {
        "type": "Point",
        "coordinates": [
          26.54174280783573,
          30.986013025133442
        ]
      }
    },
    {
      "type": "Feature",
      "properties": {
        "norad_id": 34091,
        "name": "IRIDIUM 33 DEB",
        "group": "iridium-33-debris",
        "lat": 68.89910254068566,
        "lon": -129.05063541656355,
        "alt_km": 630.1856793411016,
        "timestamp": "2025-12-26T13:39:19.364166+00:00",
        "meta_object_name": "IRIDIUM 33 DEB",
        "meta_object_id": "1997-051DA",
        "meta_epoch": "2025-12-26T03:26:13.490880",
        "meta_mean_motion": 14.82802245,
        "meta_eccentricity": 0.00343844,
        "meta_inclination": 86.3408,
        "meta_ra_of_asc_node": 60.6907,
        "meta_arg_of_pericenter": 245.3053,
        "meta_mean_anomaly": 114.4589,
        "meta_ephemeris_type": 0,
        "meta_classification_type": "U",
        "meta_norad_cat_id": 34091,
        "meta_element_set_no": 999,
        "meta_rev_at_epoch": 88065,
        "meta_bstar": 0.0044294719,
        "meta_mean_motion_dot": 0.00036356,
        "meta_mean_motion_ddot": 0,
        "tle_line1": "1 34091U 97051DA  25360.14321170  .00036356  00000+0  44295-2 0  9992",
        "tle_line2": "2 34091  86.3408  60.6907 0034384 245.3053 114.4589 14.82802245880655"
      },
      "geometry": {
        "type": "Point",
        "coordinates": [
          -129.05063541656355,
          68.89910254068566
        ]
      }
    },
    {
      "type": "Feature",
      "properties": {
        "norad_id": 34097,
        "name": "IRIDIUM 33 DEB",
        "group": "iridium-33-debris",
        "lat": 21.490724985902293,
        "lon": 173.80355619674964,
        "alt_km": 829.3446686204161,
        "timestamp": "2025-12-26T13:39:19.364177+00:00",
        "meta_object_name": "IRIDIUM 33 DEB",
        "meta_object_id": "1997-051DG",
        "meta_epoch": "2025-12-26T06:13:14.223360",
        "meta_mean_motion": 14.34887845,
        "meta_eccentricity": 0.00812395,
        "meta_inclination": 86.2008,
        "meta_ra_of_asc_node": 355.4394,
        "meta_arg_of_pericenter": 317.8681,
        "meta_mean_anomaly": 41.6287,
        "meta_ephemeris_type": 0,
        "meta_classification_type": "U",
        "meta_norad_cat_id": 34097,
        "meta_element_set_no": 999,
        "meta_rev_at_epoch": 87313,
        "meta_bstar": 0.0016535417,
        "meta_mean_motion_dot": 4.894e-05,
        "meta_mean_motion_ddot": 0,
        "tle_line1": "1 34097U 97051DG  25360.25919240  .00004894  00000+0  16535-2 0  9999",
        "tle_line2": "2 34097  86.2008 355.4394 0081239 317.8681  41.6287 14.34887845873131"
      },
      "geometry": {
        "type": "Point",
        "coordinates": [
          173.80355619674964,
          21.490724985902293
        ]
      }
    },
    {
      "type": "Feature",
      "properties": {
        "norad_id": 34145,
        "name": "IRIDIUM 33 DEB",
        "group": "iridium-33-debris",
        "lat": 80.6124721912531,
        "lon": -10.013984860704271,
        "alt_km": 709.5485373797801,
        "timestamp": "2025-12-26T13:39:19.364187+00:00",
        "meta_object_name": "IRIDIUM 33 DEB",
        "meta_object_id": "1997-051DY",
        "meta_epoch": "2025-12-25T22:17:54.684096",
        "meta_mean_motion": 14.42385613,
        "meta_eccentricity": 0.0055445,
        "meta_inclination": 86.2129,
        "meta_ra_of_asc_node": 326.6523,
        "meta_arg_of_pericenter": 51.9493,
        "meta_mean_anomaly": 308.6692,
        "meta_ephemeris_type": 0,
        "meta_classification_type": "U",
        "meta_norad_cat_id": 34145,
        "meta_element_set_no": 999,
        "meta_rev_at_epoch": 87828,
        "meta_bstar": 0.0013201,
        "meta_mean_motion_dot": 4.465e-05,
        "meta_mean_motion_ddot": 0,
        "tle_line1": "1 34145U 97051DY  25359.92910514  .00004465  00000+0  13201-2 0  9991",
        "tle_line2": "2 34145  86.2129 326.6523 0055445  51.9493 308.6692 14.42385613878282"
      },
      "geometry": {
        "type": "Point",
        "coordinates": [
          -10.013984860704271,
          80.6124721912531
        ]
      }
    },
    {
      "type": "Feature",
      "properties": {
        "norad_id": 34146,
        "name": "IRIDIUM 33 DEB",
        "group": "iridium-33-debris",
        "lat": 54.045699445880906,
        "lon": -11.169502919420395,
        "alt_km": 732.983724588501,
        "timestamp": "2025-12-26T13:39:19.364198+00:00",
        "meta_object_name": "IRIDIUM 33 DEB",
        "meta_object_id": "1997-051DZ",
        "meta_epoch": "2025-12-26T05:10:53.931072",
        "meta_mean_motion": 14.49135058,
        "meta_eccentricity": 0.00270494,
        "meta_inclination": 86.2845,
        "meta_ra_of_asc_node": 343.8464,
        "meta_arg_of_pericenter": 175.301,
        "meta_mean_anomaly": 198.4852,
        "meta_ephemeris_type": 0,
        "meta_classification_type": "U",
        "meta_norad_cat_id": 34146,
        "meta_element_set_no": 999,
        "meta_rev_at_epoch": 88302,
        "meta_bstar": 0.00092782077,
        "meta_mean_motion_dot": 3.563e-05,
        "meta_mean_motion_ddot": 0,
        "tle_line1": "1 34146U 97051DZ  25360.21590198  .00003563  00000+0  92782-3 0  9998",
        "tle_line2": "2 34146  86.2845 343.8464 0027049 175.3010 198.4852 14.49135058883022"
      },
      "geometry": {
        "type": "Point",
        "coordinates": [
          -11.169502919420395,
          54.045699445880906
        ]
      }
    },
    {
      "type": "Feature",
      "properties": {
        "norad_id": 34159,
        "name": "IRIDIUM 33 DEB",
        "group": "iridium-33-debris",
        "lat": -36.43047594543131,
        "lon": 39.64274723617153,
        "alt_km": 767.9353527263584,
        "timestamp": "2025-12-26T13:39:19.364208+00:00",
        "meta_object_name": "IRIDIUM 33 DEB",
        "meta_object_id": "1997-051EN",
        "meta_epoch": "2025-12-26T02:08:20.180544",
        "meta_mean_motion": 14.38525461,
        "meta_eccentricity": 0.00262795,
        "meta_inclination": 86.3493,
        "meta_ra_of_asc_node": 42.5483,
        "meta_arg_of_pericenter": 240.6679,
        "meta_mean_anomaly": 119.1893,
        "meta_ephemeris_type": 0,
        "meta_classification_type": "U",
        "meta_norad_cat_id": 34159,
        "meta_element_set_no": 999,
        "meta_rev_at_epoch": 88151,
        "meta_bstar": 0.00037825721,
        "meta_mean_motion_dot": 1.179e-05,
        "meta_mean_motion_ddot": 0,
        "tle_line1": "1 34159U 97051EN  25360.08912246  .00001179  00000+0  37826-3 0  9998",
        "tle_line2": "2 34159  86.3493  42.5483 0026279 240.6679 119.1893 14.38525461881517"
      },
      "geometry": {
        "type": "Point",
        "coordinates": [
          39.64274723617153,
          -36.43047594543131
        ]
      }
    },
    {
      "type": "Feature",
      "properties": {
        "norad_id": 34350,
        "name": "IRIDIUM 33 DEB",
        "group": "iridium-33-debris",
        "lat": -25.59325478229662,
        "lon": -4.957275021453523,
        "alt_km": 754.299794006135,
        "timestamp": "2025-12-26T13:39:19.364219+00:00",
        "meta_object_name": "IRIDIUM 33 DEB",
        "meta_object_id": "1997-051ES",
        "meta_epoch": "2025-12-26T00:45:52.672896",
        "meta_mean_motion": 14.45417432,
        "meta_eccentricity": 0.00235213,
        "meta_inclination": 86.3273,
        "meta_ra_of_asc_node": 357.0387,
        "meta_arg_of_pericenter": 94.6131,
        "meta_mean_anomaly": 326.9931,
        "meta_ephemeris_type": 0,
        "meta_classification_type": "U",
        "meta_norad_cat_id": 34350,
        "meta_element_set_no": 999,
        "meta_rev_at_epoch": 88485,
        "meta_bstar": 0.00033943033,
        "meta_mean_motion_dot": 1.218e-05,
        "meta_mean_motion_ddot": 0,
        "tle_line1": "1 34350U 97051ES  25360.03185964  .00001218  00000+0  33943-3 0  9995",
        "tle_line2": "2 34350  86.3273 357.0387 0023521  94.6131 326.9931 14.45417432884857"
      },
      "geometry": {
        "type": "Point",
        "coordinates": [
          -4.957275021453523,
          -25.59325478229662
        ]
      }
    }
  ]
}